NORAD_CAT_ID,OBJECT_NAME,OBJECT_TYPE,EPOCH,MEAN_MOTION,ECCENTRICITY,INCLINATION,RA_OF_ASC_NODE,ARG_OF_PERICENTER,MEAN_ANOMALY,BSTAR,MEAN_MOTION_DOT,MEAN_MOTION_DDOT,TLE_LINE0,TLE_LINE1,TLE_LINE2,SEMIMAJOR_AXIS,PERIOD,APOGEE,PERIGEE,DECAYED
53980.0,STARLINK-5133,PAYLOAD,2022-11-16 22:00:08,15.36618865,0.0001479,53.2176,246.381,48.4863,40.2625,-0.0344779999999999,-0.01141465,0.0,0 STARLINK-5133,1 53980U 22125S   22320.91675926 -.01141465  00000-0 -34478-1 0  9992,2 53980  53.2176 246.3810 0001479  48.4863  40.2625 15.36618865  1301,6834.253000000002,93.712,457.129,455.107,0.0
53980.0,STARLINK-5133,PAYLOAD,2022-11-17 12:00:00,15.35189925,0.0001475,53.217,243.653,44.3539,31.1362,-0.035776,-0.01131866,0.0,0 STARLINK-5133,1 53980U 22125S   22321.50001157 -.01131866  00000-0 -35776-1 0  9993,2 53980  53.2170 243.6530 0001475  44.3539  31.1362 15.35189925  7059,6838.493,93.799,461.367,459.35,0.0
53980.0,STARLINK-5133,PAYLOAD,2022-11-17 14:00:01,15.34996609,0.0001477,53.2171,243.263,51.2187,125.0505,-0.03652,-0.01146827,0.0,0 STARLINK-5133,1 53980U 22125S   22321.58334491 -.01146827  00000-0 -36520-1 0  9992,2 53980  53.2171 243.2630 0001477  51.2187 125.0505 15.34996609  1303,6839.068,93.811,461.943,459.922,0.0
53980.0,STARLINK-5133,PAYLOAD,2022-11-17 22:00:00,15.34196627,0.0001516,53.217,241.7064,54.7497,164.0327,-0.038178,-0.01166633,0.0,0 STARLINK-5133,1 53980U 22125S   22321.91667824 -.01166633  00000-0 -38178-1 0  9996,2 53980  53.2170 241.7064 0001516  54.7497 164.0327 15.34196627  1309,6841.445,93.86,464.347,462.273,0.0
53980.0,STARLINK-5133,PAYLOAD,2022-11-18 04:00:00,15.33564818,0.0001676999999999,53.2175,240.5408,48.2818,111.7579,-0.037845,-0.01136275,0.0,0 STARLINK-5133,1 53980U 22125S   22322.16667824 -.01136275  00000-0 -37845-1 0  9993,2 53980  53.2175 240.5408 0001677  48.2818 111.7579 15.33564818  7153,6843.324000000001,93.899,466.336,464.041,0.0
53980.0,STARLINK-5133,PAYLOAD,2022-11-18 14:00:01,15.32549249,0.0001304,53.2172,238.5987,55.4704,245.4263,-0.039161,-0.01138213,0.0,0 STARLINK-5133,1 53980U 22125S   22322.58334491 -.01138213  00000-0 -39161-1 0  9997,2 53980  53.2172 238.5987 0001304  55.4704 245.4263 15.32549249  1306,6846.347,93.961,469.104,467.319,0.0
53980.0,STARLINK-5133,PAYLOAD,2022-11-18 20:00:01,15.31982931,0.0001421,53.2169,237.4354,71.9626,168.6892,-0.041904,-0.01191111,0.0,0 STARLINK-5133,1 53980U 22125S   22322.83334491 -.01191111  00000-0 -41904-1 0  9999,2 53980  53.2169 237.4354 0001421  71.9626 168.6892 15.31982931  7256,6848.034000000002,93.996,470.872,468.926,0.0
53980.0,STARLINK-5133,PAYLOAD,2022-11-18 22:00:00,15.31757185,0.0001271,53.217,237.0483,65.4219,275.0498,-0.041301,-0.01167877,0.0,0 STARLINK-5133,1 53980U 22125S   22322.91667824 -.01167877  00000-0 -41301-1 0  9990,2 53980  53.2170 237.0483 0001271  65.4219 275.0498 15.31757185  1302,6848.706999999999,94.01,471.442,469.701,0.0
53980.0,STARLINK-5133,PAYLOAD,2022-11-19 14:00:01,15.30097112,0.0001579,53.2173,233.9515,36.9071,19.8181,-0.041635,-0.01122042,0.0,0 STARLINK-5133,1 53980U 22125S   22323.58334491 -.01122042  00000-0 -41635-1 0  9990,2 53980  53.2173 233.9515 0001579  36.9071  19.8181 15.30097112  7378,6853.659000000002,94.112,476.606,474.442,0.0
53980.0,STARLINK-5133,PAYLOAD,2022-11-19 22:00:00,15.293007500000002,0.0001589,53.217,232.4074,48.782,44.5867,-0.043695,-0.01146434,0.0,0 STARLINK-5133,1 53980U 22125S   22323.91667824 -.01146434  00000-0 -43695-1 0  9995,2 53980  53.2170 232.4074 0001589  48.7820  44.5867 15.29300750  1309,6856.038000000001,94.161,478.99300000000005,476.814,0.0
53980.0,STARLINK-5133,PAYLOAD,2022-11-20 04:00:00,15.28617288,0.0001460999999999,53.217,231.2514,49.4112,340.8477,-0.040885,-0.01058034,0.0,0 STARLINK-5133,1 53980U 22125S   22324.16667824 -.01058034  00000-0 -40885-1 0  9999,2 53980  53.2170 231.2514 0001461  49.4112 340.8477 15.28617288  7464,6858.081999999999,94.203,480.949,478.945,0.0
53980.0,STARLINK-5133,PAYLOAD,2022-11-20 14:00:01,15.27665669,0.0001564999999999,53.2172,229.3219,50.313,113.4312,-0.045496,-0.01135967,0.0,0 STARLINK-5133,1 53980U 22125S   22324.58334491 -.01135967  00000-0 -45496-1 0  9990,2 53980  53.2172 229.3219 0001565  50.3130 113.4312 15.27665669  7526,6860.93,94.261,483.86800000000005,481.721,0.0
53980.0,STARLINK-5133,PAYLOAD,2022-11-20 22:00:00,15.2685024,0.0001656,53.2174,227.783,51.5684,145.895,-0.046529,-0.01133385,0.0,0 STARLINK-5133,1 53980U 22125S   22324.91667824 -.01133385  00000-0 -46529-1 0  9996,2 53980  53.2174 227.7830 0001656  51.5684 145.8950 15.26850240  1304,6863.371999999999,94.312,486.374,484.101,0.0
53980.0,STARLINK-5133,PAYLOAD,2022-11-21 12:00:00,15.25441716,0.000164,53.2174,225.0943,45.0953,119.0149,-0.04955,-0.0116995,0.0,0 STARLINK-5133,1 53980U 22125S   22325.50001157 -.01169950  00000-0 -49550-1 0  9997,2 53980  53.2174 225.0943 0001640  45.0953 119.0149 15.25441716  7661,6867.596,94.399,490.588,488.335,0.0
53980.0,STARLINK-5133,PAYLOAD,2022-11-21 14:00:01,15.25222608,0.0001477,53.2174,224.7096,48.047,213.9204,-0.048872,-0.01148073,0.0,0 STARLINK-5133,1 53980U 22125S   22325.58334491 -.01148073  00000-0 -48872-1 0  9994,2 53980  53.2174 224.7096 0001477  48.0470 213.9204 15.25222608  1309,6868.254,94.412,491.134,489.105,0.0
53980.0,STARLINK-5133,PAYLOAD,2022-11-21 22:00:00,15.24435573,0.0001315999999999,53.2173,223.1774,63.6836,229.0544,-0.051747,-0.01184038,0.0,0 STARLINK-5133,1 53980U 22125S   22325.91667824 -.01184038  00000-0 -51747-1 0  9996,2 53980  53.2173 223.1774 0001316  63.6836 229.0544 15.24435573  1306,6870.618,94.461,493.387,491.579,0.0
53980.0,STARLINK-5133,PAYLOAD,2022-11-22 14:00:01,15.22788868,0.0001567,53.2174,220.1151,39.9347,311.5134,-0.0530559999999999,-0.01157836,0.0,0 STARLINK-5133,1 53980U 22125S   22326.58335648 -.01157836  00000-0 -53056-1 0  9997,2 53980  53.2174 220.1151 0001567  39.9347 311.5134 15.22788868  7836,6875.57,94.563,498.512,496.358,0.0
53980.0,STARLINK-5133,PAYLOAD,2022-11-22 22:00:00,15.21987155,0.000134,53.2175,218.5879,54.5251,324.7046,-0.055161,-0.01174027,0.0,0 STARLINK-5133,1 53980U 22125S   22326.91667824 -.01174027  00000-0 -55161-1 0  9998,2 53980  53.2175 218.5879 0001340  54.5251 324.7046 15.21987155  1304,6877.984,94.613,500.771,498.92800000000005,0.0
53980.0,STARLINK-5133,PAYLOAD,2022-11-23 12:00:02,15.20546089,0.000149,53.2175,215.9177,43.9535,291.7363,-0.056347,-0.01151243,0.0,0 STARLINK-5133,1 53980U 22125S   22327.50002315 -.01151243  00000-0 -56347-1 0  9994,2 53980  53.2175 215.9177 0001490  43.9535 291.7363 15.20546089  7979,6882.329000000002,94.703,505.22,503.169,0.0
53980.0,STARLINK-5133,PAYLOAD,2022-11-23 14:00:01,15.2033896,0.0001633,53.2174,215.5359,41.2452,30.7658,-0.056431,-0.01146396,0.0,0 STARLINK-5133,1 53980U 22125S   22327.58334491 -.01146396  00000-0 -56431-1 0  9992,2 53980  53.2174 215.5359 0001633  41.2452  30.7658 15.20338960  1300,6882.954000000002,94.716,505.943,503.695,0.0
53980.0,STARLINK-5133,PAYLOAD,2022-11-23 22:00:00,15.19527642,0.0001545,53.2175,214.0159,52.0741,44.8523,-0.057952,-0.01149384,0.0,0 STARLINK-5133,1 53980U 22125S   22327.91667824 -.01149384  00000-0 -57952-1 0  9997,2 53980  53.2175 214.0159 0001545  52.0741  44.8523 15.19527642  1308,6885.404,94.766,508.333,506.205,0.0
53980.0,STARLINK-5133,PAYLOAD,2022-11-24 04:00:00,15.18939082,0.0001591,53.2171,212.8766,42.1786,342.7788,-0.060238,-0.01172443,0.0,0 STARLINK-5133,1 53980U 22125S   22328.16667824 -.01172443  00000-0 -60238-1 0  9998,2 53980  53.2171 212.8766 0001591  42.1786 342.7788 15.18939082  8072,6887.183000000001,94.803,510.143,507.952,0.0
53980.0,STARLINK-5133,PAYLOAD,2022-11-24 14:00:01,15.17913002,0.0001873,53.2174,210.9763,41.5987,102.2242,-0.061768,-0.01167414,0.0,0 STARLINK-5133,1 53980U 22125S   22328.58334491 -.01167414  00000-0 -61768-1 0  9996,2 53980  53.2174 210.9763 0001873  41.5987 102.2242 15.17913002  1306,6890.286,94.867,513.442,510.861,0.0
53980.0,STARLINK-5133,PAYLOAD,2022-11-24 22:00:00,15.17095552,0.0001643,53.2174,209.4608,55.1113,110.6973,-0.062917,-0.011618,0.0,0 STARLINK-5133,1 53980U 22125S   22328.91667824 -.01161800  00000-0 -62917-1 0  9992,2 53980  53.2174 209.4608 0001643  55.1113 110.6973 15.17095552  1309,6892.761,94.918,515.758,513.493,0.0
53980.0,STARLINK-5133,PAYLOAD,2022-11-25 06:00:00,15.16269417,0.0001794,53.217,207.9466,40.908,145.9134,-0.063426,-0.01145123,0.0,0 STARLINK-5133,1 53980U 22125S   22329.25001157 -.01145123  00000-0 -63426-1 0  9997,2 53980  53.2170 207.9466 0001794  40.9080 145.9134 15.16269417  8233,6895.264,94.97,518.366,515.8919999999998,0.0
53980.0,STARLINK-5133,PAYLOAD,2022-11-25 14:00:01,15.15356651,0.0001669,53.2172,206.4325,47.0571,159.8447,-0.056946,-0.00999375,0.0,0 STARLINK-5133,1 53980U 22125S   22329.58334491 -.00999375  00000-0 -56946-1 0  9997,2 53980  53.2172 206.4325 0001669  47.0571 159.8447 15.15356651  1305,6898.033,95.027,521.049,518.747,0.0
53980.0,STARLINK-5133,PAYLOAD,2022-11-25 22:00:00,15.14608698,0.0001676999999999,53.2175,204.9228,58.4289,167.4867,-0.063457,-0.01096474,0.0,0 STARLINK-5133,1 53980U 22125S   22329.91667824 -.01096474  00000-0 -63457-1 0  9997,2 53980  53.2175 204.9228 0001677  58.4289 167.4867 15.14608698  1305,6900.304,95.074,523.326,521.012,0.0
53980.0,STARLINK-5133,PAYLOAD,2022-11-26 04:00:00,15.1385467,0.000201,53.217,203.7915,35.8509,113.798,-0.053682,-0.00909736,0.0,0 STARLINK-5133,1 53980U 22125S   22330.16667824 -.00909736  00000-0 -53682-1 0  9998,2 53980  53.2170 203.7915 0002010  35.8509 113.7980 15.13854670  8372,6902.595,95.121,525.847,523.072,0.0
53980.0,STARLINK-5133,PAYLOAD,2022-11-26 12:00:00,15.13107449,0.0001823,53.2173,202.2826,25.4081,141.5441,-0.060428,-0.00995307,0.0,0 STARLINK-5133,1 53980U 22125S   22330.50001157 -.00995307  00000-0 -60428-1 0  9992,2 53980  53.2173 202.2826 0001823  25.4081 141.5441 15.13107449  8423,6904.8669999999975,95.168,527.991,525.4730000000002,0.0
